GLOBALSTAR M001         
1 25162U 98008A   25047.92072431 -.00000060  00000+0  27902-3 0  9996
2 25162  52.0057 323.2716 0001905  16.3925  62.4006 12.38207132228810
GLOBALSTAR M004         
1 25163U 98008B   25047.76681612 -.00000136  00000+0 -17387-3 0  9997
2 25163  52.0009  61.5229 0003064  29.3973 141.5313 12.63387534246468
GLOBALSTAR M002         
1 25164U 98008C   25047.68487751 -.00000058  00000+0  36897-3 0  9996
2 25164  51.9996 182.3423 0000358 268.5205  91.5574 11.61508328170066
GLOBALSTAR M014         
1 25306U 98023A   25047.90855772 -.00000062  00000+0  28773-3 0  9997
2 25306  51.9832 107.5366 0001541 137.3425  33.1450 11.65478216177147
GLOBALSTAR M006         
1 25307U 98023B   25047.75248333 -.00000056  00000+0  39420-3 0  9994
2 25307  51.9927 155.9022 0003013 234.2772 267.8601 11.58172355202877
GLOBALSTAR M015         
1 25308U 98023C   25047.90266865 -.00000065  00000+0  19542-3 0  9995
2 25308  51.9790 248.4890 0011944 218.4976 234.1016 11.48858277180256
GLOBALSTAR M008         
1 25309U 98023D   25047.84180097 -.00000083  00000+0  99671-4 0  9993
2 25309  51.9952 186.9649 0001626 280.3751 201.7481 12.36062524222961
